[
  {
    "COMMENT": "GENERATED VIA SPACETRACK.ORG API",
    "ORIGINATOR": "18 SPCS",
    "NORAD_CAT_ID": "46469",
    "OBJECT_NAME": "HAIYANG 2C",
    "OBJECT_TYPE": "PAYLOAD",
    "CLASSIFICATION_TYPE": "U",
    "INTLDES": "20066A",
    "EPOCH": "2023-05-16 19:13:40",
    "EPOCH_MICROSECONDS": "972224",
    "MEAN_MOTION": "13.83372878",
    "ECCENTRICITY": "0.0008064",
    "INCLINATION": "65.9945",
    "RA_OF_ASC_NODE": "142.233",
    "ARG_OF_PERICENTER": "298.2747",
    "MEAN_ANOMALY": "61.7509",
    "EPHEMERIS_TYPE": "0",
    "ELEMENT_SET_NO": "999",
    "REV_AT_EPOCH": "13384",
    "BSTAR": "0.000059355",
    "MEAN_MOTION_DOT": "-0.00000016",
    "MEAN_MOTION_DDOT": "0",
    "FILE": "3909742",
    "TLE_LINE0": "0 HAIYANG 2C",
    "TLE_LINE1": "1 46469U 20066A   23136.80116866 -.00000016  00000-0  59355-4 0  9993",
    "TLE_LINE2": "2 46469  65.9945 142.2330 0008064 298.2747  61.7509 13.83372878133848",
    "OBJECT_ID": "2020-066A",
    "OBJECT_NUMBER": "46469",
    "SEMIMAJOR_AXIS": "7330.085",
    "PERIOD": "104.093",
    "APOGEE": "957.861",
    "PERIGEE": "946.039",
    "DECAYED": "0"
  },
  {
    "COMMENT": "GENERATED VIA SPACETRACK.ORG API",
    "ORIGINATOR": "18 SPCS",
    "NORAD_CAT_ID": "46469",
    "OBJECT_NAME": "HAIYANG 2C",
    "OBJECT_TYPE": "PAYLOAD",
    "CLASSIFICATION_TYPE": "U",
    "INTLDES": "20066A",
    "EPOCH": "2023-05-17 02:10:06",
    "EPOCH_MICROSECONDS": "88800",
    "MEAN_MOTION": "13.83372719",
    "ECCENTRICITY": "0.0008455",
    "INCLINATION": "65.994",
    "RA_OF_ASC_NODE": "141.5066",
    "ARG_OF_PERICENTER": "301.9819",
    "MEAN_ANOMALY": "58.0427",
    "EPHEMERIS_TYPE": "0",
    "ELEMENT_SET_NO": "999",
    "REV_AT_EPOCH": "13388",
    "BSTAR": "0.000065005",
    "MEAN_MOTION_DOT": "-0.0000001",
    "MEAN_MOTION_DDOT": "0",
    "FILE": "3909785",
    "TLE_LINE0": "0 HAIYANG 2C",
    "TLE_LINE1": "1 46469U 20066A   23137.09034825 -.00000010  00000-0  65005-4 0  9992",
    "TLE_LINE2": "2 46469  65.9940 141.5066 0008455 301.9819  58.0427 13.83372719133883",
    "OBJECT_ID": "2020-066A",
    "OBJECT_NUMBER": "46469",
    "SEMIMAJOR_AXIS": "7330.085",
    "PERIOD": "104.093",
    "APOGEE": "958.148",
    "PERIGEE": "945.753",
    "DECAYED": "0"
  },
  {
    "COMMENT": "GENERATED VIA SPACETRACK.ORG API",
    "ORIGINATOR": "18 SPCS",
    "NORAD_CAT_ID": "46469",
    "OBJECT_NAME": "HAIYANG 2C",
    "OBJECT_TYPE": "PAYLOAD",
    "CLASSIFICATION_TYPE": "U",
    "INTLDES": "20066A",
    "EPOCH": "2023-05-17 10:50:37",
    "EPOCH_MICROSECONDS": "451904",
    "MEAN_MOTION": "13.83372754",
    "ECCENTRICITY": "0.0008466",
    "INCLINATION": "65.9941",
    "RA_OF_ASC_NODE": "140.6065",
    "ARG_OF_PERICENTER": "302.0424",
    "MEAN_ANOMALY": "57.9822",
    "EPHEMERIS_TYPE": "0",
    "ELEMENT_SET_NO": "999",
    "REV_AT_EPOCH": "13393",
    "BSTAR": "0.000065379",
    "MEAN_MOTION_DOT": "-0.00000009",
    "MEAN_MOTION_DDOT": "0",
    "FILE": "3910142",
    "TLE_LINE0": "0 HAIYANG 2C",
    "TLE_LINE1": "1 46469U 20066A   23137.45182236 -.00000009  00000-0  65379-4 0  9994",
    "TLE_LINE2": "2 46469  65.9941 140.6065 0008466 302.0424  57.9822 13.83372754133931",
    "OBJECT_ID": "2020-066A",
    "OBJECT_NUMBER": "46469",
    "SEMIMAJOR_AXIS": "7330.085",
    "PERIOD": "104.093",
    "APOGEE": "958.156",
    "PERIGEE": "945.745",
    "DECAYED": "0"
  },
  {
    "COMMENT": "GENERATED VIA SPACETRACK.ORG API",
    "ORIGINATOR": "18 SPCS",
    "NORAD_CAT_ID": "46469",
    "OBJECT_NAME": "HAIYANG 2C",
    "OBJECT_TYPE": "PAYLOAD",
    "CLASSIFICATION_TYPE": "U",
    "INTLDES": "20066A",
    "EPOCH": "2023-05-17 17:47:02",
    "EPOCH_MICROSECONDS": "533056",
    "MEAN_MOTION": "13.83372782",
    "ECCENTRICITY": "0.0008495",
    "INCLINATION": "65.9941",
    "RA_OF_ASC_NODE": "139.8865",
    "ARG_OF_PERICENTER": "301.9556",
    "MEAN_ANOMALY": "58.0686",
    "EPHEMERIS_TYPE": "0",
    "ELEMENT_SET_NO": "999",
    "REV_AT_EPOCH": "13397",
    "BSTAR": "0.000058166",
    "MEAN_MOTION_DOT": "-0.00000017",
    "MEAN_MOTION_DDOT": "0",
    "FILE": "3910367",
    "TLE_LINE0": "0 HAIYANG 2C",
    "TLE_LINE1": "1 46469U 20066A   23137.74100154 -.00000017  00000-0  58166-4 0  9990",
    "TLE_LINE2": "2 46469  65.9941 139.8865 0008495 301.9556  58.0686 13.83372782133970",
    "OBJECT_ID": "2020-066A",
    "OBJECT_NUMBER": "46469",
    "SEMIMAJOR_AXIS": "7330.085",
    "PERIOD": "104.093",
    "APOGEE": "958.177",
    "PERIGEE": "945.723",
    "DECAYED": "0"
  },
  {
    "COMMENT": "GENERATED VIA SPACETRACK.ORG API",
    "ORIGINATOR": "18 SPCS",
    "NORAD_CAT_ID": "46469",
    "OBJECT_NAME": "HAIYANG 2C",
    "OBJECT_TYPE": "PAYLOAD",
    "CLASSIFICATION_TYPE": "U",
    "INTLDES": "20066A",
    "EPOCH": "2023-05-17 22:59:21",
    "EPOCH_MICROSECONDS": "346944",
    "MEAN_MOTION": "13.83372806",
    "ECCENTRICITY": "0.0008501",
    "INCLINATION": "65.9941",
    "RA_OF_ASC_NODE": "139.3466",
    "ARG_OF_PERICENTER": "301.9209",
    "MEAN_ANOMALY": "58.1032",
    "EPHEMERIS_TYPE": "0",
    "ELEMENT_SET_NO": "999",
    "REV_AT_EPOCH": "13371",
    "BSTAR": "0.000052787",
    "MEAN_MOTION_DOT": "-0.00000023",
    "MEAN_MOTION_DDOT": "0",
    "FILE": "3910633",
    "TLE_LINE0": "0 HAIYANG 2C",
    "TLE_LINE1": "1 46469U 20066A   23137.95788596 -.00000023  00000-0  52787-4 0  9995",
    "TLE_LINE2": "2 46469  65.9941 139.3466 0008501 301.9209  58.1032 13.83372806133710",
    "OBJECT_ID": "2020-066A",
    "OBJECT_NUMBER": "46469",
    "SEMIMAJOR_AXIS": "7330.085",
    "PERIOD": "104.093",
    "APOGEE": "958.181",
    "PERIGEE": "945.719",
    "DECAYED": "0"
  },
  {
    "COMMENT": "GENERATED VIA SPACETRACK.ORG API",
    "ORIGINATOR": "18 SPCS",
    "NORAD_CAT_ID": "46469",
    "OBJECT_NAME": "HAIYANG 2C",
    "OBJECT_TYPE": "PAYLOAD",
    "CLASSIFICATION_TYPE": "U",
    "INTLDES": "20066A",
    "EPOCH": "2023-05-18 02:27:33",
    "EPOCH_MICROSECONDS": "887520",
    "MEAN_MOTION": "13.83372812",
    "ECCENTRICITY": "0.0008506",
    "INCLINATION": "65.9941",
    "RA_OF_ASC_NODE": "138.9865",
    "ARG_OF_PERICENTER": "301.8947",
    "MEAN_ANOMALY": "58.1293",
    "EPHEMERIS_TYPE": "0",
    "ELEMENT_SET_NO": "999",
    "REV_AT_EPOCH": "13402",
    "BSTAR": "0.000047855",
    "MEAN_MOTION_DOT": "-0.00000029",
    "MEAN_MOTION_DDOT": "0",
    "FILE": "3910762",
    "TLE_LINE0": "0 HAIYANG 2C",
    "TLE_LINE1": "1 46469U 20066A   23138.10247555 -.00000029  00000-0  47855-4 0  9994",
    "TLE_LINE2": "2 46469  65.9941 138.9865 0008506 301.8947  58.1293 13.83372812134022",
    "OBJECT_ID": "2020-066A",
    "OBJECT_NUMBER": "46469",
    "SEMIMAJOR_AXIS": "7330.085",
    "PERIOD": "104.093",
    "APOGEE": "958.185",
    "PERIGEE": "945.715",
    "DECAYED": "0"
  },
  {
    "COMMENT": "GENERATED VIA SPACETRACK.ORG API",
    "ORIGINATOR": "18 SPCS",
    "NORAD_CAT_ID": "46469",
    "OBJECT_NAME": "HAIYANG 2C",
    "OBJECT_TYPE": "PAYLOAD",
    "CLASSIFICATION_TYPE": "U",
    "INTLDES": "20066A",
    "EPOCH": "2023-05-18 11:08:05",
    "EPOCH_MICROSECONDS": "242848",
    "MEAN_MOTION": "13.83372888",
    "ECCENTRICITY": "0.0008527",
    "INCLINATION": "65.9941",
    "RA_OF_ASC_NODE": "138.0865",
    "ARG_OF_PERICENTER": "301.9131",
    "MEAN_ANOMALY": "58.1107",
    "EPHEMERIS_TYPE": "0",
    "ELEMENT_SET_NO": "999",
    "REV_AT_EPOCH": "13407",
    "BSTAR": "0.000056763",
    "MEAN_MOTION_DOT": "-0.00000019",
    "MEAN_MOTION_DDOT": "0",
    "FILE": "3911002",
    "TLE_LINE0": "0 HAIYANG 2C",
    "TLE_LINE1": "1 46469U 20066A   23138.46394957 -.00000019  00000-0  56763-4 0  9999",
    "TLE_LINE2": "2 46469  65.9941 138.0865 0008527 301.9131  58.1107 13.83372888134074",
    "OBJECT_ID": "2020-066A",
    "OBJECT_NUMBER": "46469",
    "SEMIMAJOR_AXIS": "7330.085",
    "PERIOD": "104.093",
    "APOGEE": "958.200",
    "PERIGEE": "945.699",
    "DECAYED": "0"
  },
  {
    "COMMENT": "GENERATED VIA SPACETRACK.ORG API",
    "ORIGINATOR": "18 SPCS",
    "NORAD_CAT_ID": "46469",
    "OBJECT_NAME": "HAIYANG 2C",
    "OBJECT_TYPE": "PAYLOAD",
    "CLASSIFICATION_TYPE": "U",
    "INTLDES": "20066A",
    "EPOCH": "2023-05-18 12:52:11",
    "EPOCH_MICROSECONDS": "513568",
    "MEAN_MOTION": "13.833729",
    "ECCENTRICITY": "0.0008531",
    "INCLINATION": "65.9941",
    "RA_OF_ASC_NODE": "137.9065",
    "ARG_OF_PERICENTER": "301.9133",
    "MEAN_ANOMALY": "58.1105",
    "EPHEMERIS_TYPE": "0",
    "ELEMENT_SET_NO": "999",
    "REV_AT_EPOCH": "13379",
    "BSTAR": "0.000056454",
    "MEAN_MOTION_DOT": "-0.00000019",
    "MEAN_MOTION_DDOT": "0",
    "FILE": "3911221",
    "TLE_LINE0": "0 HAIYANG 2C",
    "TLE_LINE1": "1 46469U 20066A   23138.53624437 -.00000019  00000-0  56454-4 0  9993",
    "TLE_LINE2": "2 46469  65.9941 137.9065 0008531 301.9133  58.1105 13.83372900133792",
    "OBJECT_ID": "2020-066A",
    "OBJECT_NUMBER": "46469",
    "SEMIMAJOR_AXIS": "7330.085",
    "PERIOD": "104.093",
    "APOGEE": "958.203",
    "PERIGEE": "945.697",
    "DECAYED": "0"
  }
]